{
  "type": "FeatureCollection",
  "features": [
    {
      "type": "Feature",
      "properties": {
        "norad_id": 26766,
        "name": "INTELSAT 10 (IS-10)",
        "group": "intelsat",
        "lat": -4.46891346315413,
        "lon": 29.999820460991877,
        "alt_km": 36136.34155718293,
        "timestamp": "2025-12-02T08:59:32.387007+00:00",
        "meta_object_name": "INTELSAT 10 (IS-10)",
        "meta_object_id": "2001-019A",
        "meta_epoch": "2025-12-01T11:39:24.752160",
        "meta_mean_motion": 0.99077519,
        "meta_eccentricity": 0.00076044,
        "meta_inclination": 8.6009,
        "meta_ra_of_asc_node": 61.2665,
        "meta_arg_of_pericenter": 217.709,
        "meta_mean_anomaly": 153.5892,
        "meta_ephemeris_type": 0,
        "meta_classification_type": "U",
        "meta_norad_cat_id": 26766,
        "meta_element_set_no": 999,
        "meta_rev_at_epoch": 4362,
        "meta_bstar": 0,
        "meta_mean_motion_dot": -9.5e-07,
        "meta_mean_motion_ddot": 0,
        "tle_line1": "1 26766U 01019A   25335.48570315 -.00000095  00000+0  00000+0 0  9992",
        "tle_line2": "2 26766   8.6009  61.2665 0007604 217.7090 153.5892  0.99077519 43626"
      },
      "geometry": {
        "type": "Point",
        "coordinates": [
          29.999820460991877,
          -4.46891346315413
        ]
      }
    },
    {
      "type": "Feature",
      "properties": {
        "norad_id": 26900,
        "name": "INTELSAT 902 (IS-902)",
        "group": "intelsat",
        "lat": 5.560228797194189,
        "lon": 156.13444319385934,
        "alt_km": 35786.83702200007,
        "timestamp": "2025-12-02T08:59:32.387031+00:00",
        "meta_object_name": "INTELSAT 902 (IS-902)",
        "meta_object_id": "2001-039A",
        "meta_epoch": "2025-12-01T16:59:59.311104",
        "meta_mean_motion": 1.00270327,
        "meta_eccentricity": 0.000431,
        "meta_inclination": 5.6187,
        "meta_ra_of_asc_node": 74.2002,
        "meta_arg_of_pericenter": 175.119,
        "meta_mean_anomaly": 26.3816,
        "meta_ephemeris_type": 0,
        "meta_classification_type": "U",
        "meta_norad_cat_id": 26900,
        "meta_element_set_no": 999,
        "meta_rev_at_epoch": 8871,
        "meta_bstar": 0,
        "meta_mean_motion_dot": -2.63e-06,
        "meta_mean_motion_ddot": 0,
        "tle_line1": "1 26900U 01039A   25335.70832536 -.00000263  00000+0  00000+0 0  9992",
        "tle_line2": "2 26900   5.6187  74.2002 0004310 175.1190  26.3816  1.00270327 88715"
      },
      "geometry": {
        "type": "Point",
        "coordinates": [
          156.13444319385934,
          5.560228797194189
        ]
      }
    },
    {
      "type": "Feature",
      "properties": {
        "norad_id": 27380,
        "name": "INTELSAT 904 (IS-904)",
        "group": "intelsat",
        "lat": 6.242101297669322,
        "lon": 174.92285456035268,
        "alt_km": 35785.948830170724,
        "timestamp": "2025-12-02T08:59:32.387047+00:00",
        "meta_object_name": "INTELSAT 904 (IS-904)",
        "meta_object_id": "2002-007A",
        "meta_epoch": "2025-12-01T03:23:28.935168",
        "meta_mean_motion": 1.00269987,
        "meta_eccentricity": 0.0001425,
        "meta_inclination": 6.4235,
        "meta_ra_of_asc_node": 71.564,
        "meta_arg_of_pericenter": 194.1406,
        "meta_mean_anomaly": 183.9501,
        "meta_ephemeris_type": 0,
        "meta_classification_type": "U",
        "meta_norad_cat_id": 27380,
        "meta_element_set_no": 999,
        "meta_rev_at_epoch": 4978,
        "meta_bstar": 0,
        "meta_mean_motion_dot": -2.05e-06,
        "meta_mean_motion_ddot": 0,
        "tle_line1": "1 27380U 02007A   25335.14130712 -.00000205  00000+0  00000+0 0  9992",
        "tle_line2": "2 27380   6.4235  71.5640 0001425 194.1406 183.9501  1.00269987 49789"
      },
      "geometry": {
        "type": "Point",
        "coordinates": [
          174.92285456035268,
          6.242101297669322
        ]
      }
    },
    {
      "type": "Feature",
      "properties": {
        "norad_id": 27426,
        "name": "DIRECTV 5 (TEMPO 1)",
        "group": "intelsat",
        "lat": 1.3992889372656259,
        "lon": 96.15921631089662,
        "alt_km": 35801.27088319897,
        "timestamp": "2025-12-02T08:59:32.387060+00:00",
        "meta_object_name": "DIRECTV 5 (TEMPO 1)",
        "meta_object_id": "2002-023A",
        "meta_epoch": "2025-12-01T22:57:27.363744",
        "meta_mean_motion": 1.00271136,
        "meta_eccentricity": 0.0003662,
        "meta_inclination": 4.3723,
        "meta_ra_of_asc_node": 77.779,
        "meta_arg_of_pericenter": 187.0649,
        "meta_mean_anomaly": 40.4656,
        "meta_ephemeris_type": 0,
        "meta_classification_type": "U",
        "meta_norad_cat_id": 27426,
        "meta_element_set_no": 999,
        "meta_rev_at_epoch": 8614,
        "meta_bstar": 0,
        "meta_mean_motion_dot": -3.7e-07,
        "meta_mean_motion_ddot": 0,
        "tle_line1": "1 27426U 02023A   25335.95656671 -.00000037  00000+0  00000+0 0  9990",
        "tle_line2": "2 27426   4.3723  77.7790 0003662 187.0649  40.4656  1.00271136 86146"
      },
      "geometry": {
        "type": "Point",
        "coordinates": [
          96.15921631089662,
          1.3992889372656259
        ]
      }
    },
    {
      "type": "Feature",
      "properties": {
        "norad_id": 27438,
        "name": "INTELSAT 905 (IS-905)",
        "group": "intelsat",
        "lat": -0.3053056112062007,
        "lon": 69.17166996323411,
        "alt_km": 35798.39099071939,
        "timestamp": "2025-12-02T08:59:32.387073+00:00",
        "meta_object_name": "INTELSAT 905 (IS-905)",
        "meta_object_id": "2002-027A",
        "meta_epoch": "2025-12-01T11:26:53.712384",
        "meta_mean_motion": 1.00272635,
        "meta_eccentricity": 0.00030034,
        "meta_inclination": 6.255,
        "meta_ra_of_asc_node": 72.1839,
        "meta_arg_of_pericenter": 185.4215,
        "meta_mean_anomaly": 207.5171,
        "meta_ephemeris_type": 0,
        "meta_classification_type": "U",
        "meta_norad_cat_id": 27438,
        "meta_element_set_no": 999,
        "meta_rev_at_epoch": 4938,
        "meta_bstar": 0,
        "meta_mean_motion_dot": 1.14e-06,
        "meta_mean_motion_ddot": 0,
        "tle_line1": "1 27438U 02027A   25335.47701056  .00000114  00000+0  00000+0 0  9997",
        "tle_line2": "2 27438   6.2550  72.1839 0003003 185.4215 207.5171  1.00272635 49389"
      },
      "geometry": {
        "type": "Point",
        "coordinates": [
          69.17166996323411,
          -0.3053056112062007
        ]
      }
    },
    {
      "type": "Feature",
      "properties": {
        "norad_id": 27445,
        "name": "GALAXY 3C (G-3C)",
        "group": "intelsat",
        "lat": 1.6707007895693897,
        "lon": 111.43096258710307,
        "alt_km": 35783.99208254876,
        "timestamp": "2025-12-02T08:59:32.387085+00:00",
        "meta_object_name": "GALAXY 3C (G-3C)",
        "meta_object_id": "2002-030A",
        "meta_epoch": "2025-12-02T04:50:16.810944",
        "meta_mean_motion": 1.00270439,
        "meta_eccentricity": 0.0001324,
        "meta_inclination": 3.2359,
        "meta_ra_of_asc_node": 80.6133,
        "meta_arg_of_pericenter": 96.6523,
        "meta_mean_anomaly": 231.7594,
        "meta_ephemeris_type": 0,
        "meta_classification_type": "U",
        "meta_norad_cat_id": 27445,
        "meta_element_set_no": 999,
        "meta_rev_at_epoch": 4451,
        "meta_bstar": 0,
        "meta_mean_motion_dot": -1.32e-06,
        "meta_mean_motion_ddot": 0,
        "tle_line1": "1 27445U 02030A   25336.20158346 -.00000132  00000+0  00000+0 0  9990",
        "tle_line2": "2 27445   3.2359  80.6133 0001324  96.6523 231.7594  1.00270439 44519"
      },
      "geometry": {
        "type": "Point",
        "coordinates": [
          111.43096258710307,
          1.6707007895693897
        ]
      }
    },
    {
      "type": "Feature",
      "properties": {
        "norad_id": 27513,
        "name": "INTELSAT 906 (IS-906)",
        "group": "intelsat",
        "lat": -1.4017082028993377,
        "lon": -89.57982788885187,
        "alt_km": 35760.178965258456,
        "timestamp": "2025-12-02T08:59:32.387097+00:00",
        "meta_object_name": "INTELSAT 906 (IS-906)",
        "meta_object_id": "2002-041A",
        "meta_epoch": "2025-12-01T19:15:20.505888",
        "meta_mean_motion": 1.00272855,
        "meta_eccentricity": 0.0006106,
        "meta_inclination": 5.3014,
        "meta_ra_of_asc_node": 75.3609,
        "meta_arg_of_pericenter": 190.8107,
        "meta_mean_anomaly": 157.7085,
        "meta_ephemeris_type": 0,
        "meta_classification_type": "U",
        "meta_norad_cat_id": 27513,
        "meta_element_set_no": 999,
        "meta_rev_at_epoch": 8504,
        "meta_bstar": 0,
        "meta_mean_motion_dot": 3.3e-07,
        "meta_mean_motion_ddot": 0,
        "tle_line1": "1 27513U 02041A   25335.80232067  .00000033  00000+0  00000+0 0  9995",
        "tle_line2": "2 27513   5.3014  75.3609 0006106 190.8107 157.7085  1.00272855 85042"
      },
      "geometry": {
        "type": "Point",
        "coordinates": [
          -89.57982788885187,
          -1.4017082028993377
        ]
      }
    }
  ]
}